[{"OBJECT_NAME":"EUTELSAT 139 WEST A","OBJECT_ID":"2004-008A","EPOCH":"2026-03-15T04:58:25.344192","MEAN_MOTION":1.00831357,"ECCENTRICITY":0.00023317,"INCLINATION":5.5886,"RA_OF_ASC_NODE":73.1265,"ARG_OF_PERICENTER":27.1319,"MEAN_ANOMALY":131.5794,"EPHEMERIS_TYPE":0,"CLASSIFICATION_TYPE":"U","NORAD_CAT_ID":28187,"ELEMENT_SET_NO":999,"REV_AT_EPOCH":8041,"BSTAR":0,"MEAN_MOTION_DOT":-2.3e-7,"MEAN_MOTION_DDOT":0},{"OBJECT_NAME":"EUTELSAT 174A","OBJECT_ID":"2005-052A","EPOCH":"2026-03-15T05:16:38.627328","MEAN_MOTION":1.0027036,"ECCENTRICITY":0.00062683,"INCLINATION":3.9791,"RA_OF_ASC_NODE":77.6839,"ARG_OF_PERICENTER":278.8747,"MEAN_ANOMALY":69.4281,"EPHEMERIS_TYPE":0,"CLASSIFICATION_TYPE":"U","NORAD_CAT_ID":28924,"ELEMENT_SET_NO":999,"REV_AT_EPOCH":5138,"BSTAR":0,"MEAN_MOTION_DOT":1.0e-7,"MEAN_MOTION_DDOT":0},{"OBJECT_NAME":"EUTELSAT 33F","OBJECT_ID":"2006-032A","EPOCH":"2026-03-15T05:57:38.683296","MEAN_MOTION":1.00274639,"ECCENTRICITY":0.00034679,"INCLINATION":1.4173,"RA_OF_ASC_NODE":83.3285,"ARG_OF_PERICENTER":277.8309,"MEAN_ANOMALY":294.2,"EPHEMERIS_TYPE":0,"CLASSIFICATION_TYPE":"U","NORAD_CAT_ID":29270,"ELEMENT_SET_NO":999,"REV_AT_EPOCH":4636,"BSTAR":0,"MEAN_MOTION_DOT":1.56e-6,"MEAN_MOTION_DDOT":0},{"OBJECT_NAME":"EUTELSAT HOTBIRD 13C","OBJECT_ID":"2008-065A","EPOCH":"2026-03-15T06:54:03.677184","MEAN_MOTION":1.00270387,"ECCENTRICITY":0.0003863,"INCLINATION":2.7075,"RA_OF_ASC_NODE":80.306,"ARG_OF_PERICENTER":287.3129,"MEAN_ANOMALY":218.4855,"EPHEMERIS_TYPE":0,"CLASSIFICATION_TYPE":"U","NORAD_CAT_ID":33459,"ELEMENT_SET_NO":999,"REV_AT_EPOCH":4640,"BSTAR":0,"MEAN_MOTION_DOT":-2.82e-6,"MEAN_MOTION_DDOT":0},{"OBJECT_NAME":"EUTELSAT 36B","OBJECT_ID":"2009-065A","EPOCH":"2026-03-15T05:17:16.036800","MEAN_MOTION":1.00270439,"ECCENTRICITY":0.00057897,"INCLINATION":0.2527,"RA_OF_ASC_NODE":78.193,"ARG_OF_PERICENTER":278.9687,"MEAN_ANOMALY":305.4663,"EPHEMERIS_TYPE":0,"CLASSIFICATION_TYPE":"U","NORAD_CAT_ID":36101,"ELEMENT_SET_NO":999,"REV_AT_EPOCH":5976,"BSTAR":0,"MEAN_MOTION_DOT":1.12e-6,"MEAN_MOTION_DDOT":0},{"OBJECT_NAME":"EUTELSAT KA-SAT 9A","OBJECT_ID":"2010-069A","EPOCH":"2026-03-15T03:22:42.024288","MEAN_MOTION":1.00271329,"ECCENTRICITY":0.00026867,"INCLINATION":0.0568,"RA_OF_ASC_NODE":357.1903,"ARG_OF_PERICENTER":149.3164,"MEAN_ANOMALY":85.894,"EPHEMERIS_TYPE":0,"CLASSIFICATION_TYPE":"U","NORAD_CAT_ID":37258,"ELEMENT_SET_NO":999,"REV_AT_EPOCH":4306,"BSTAR":0,"MEAN_MOTION_DOT":6.1e-7,"MEAN_MOTION_DDOT":0},{"OBJECT_NAME":"EUTELSAT 7 WEST A","OBJECT_ID":"2011-051A","EPOCH":"2026-03-15T05:00:47.617344","MEAN_MOTION":1.00271292,"ECCENTRICITY":8.54e-5,"INCLINATION":0.0636,"RA_OF_ASC_NODE":347.3738,"ARG_OF_PERICENTER":195.1829,"MEAN_ANOMALY":58.1327,"EPHEMERIS_TYPE":0,"CLASSIFICATION_TYPE":"U","NORAD_CAT_ID":37816,"ELEMENT_SET_NO":999,"REV_AT_EPOCH":5293,"BSTAR":0,"MEAN_MOTION_DOT":-6.1e-7,"MEAN_MOTION_DDOT":0},{"OBJECT_NAME":"EUTELSAT 16A","OBJECT_ID":"2011-057A","EPOCH":"2026-03-15T06:42:38.858688","MEAN_MOTION":1.00270311,"ECCENTRICITY":0.00055633,"INCLINATION":0.0552,"RA_OF_ASC_NODE":2.093,"ARG_OF_PERICENTER":359.1958,"MEAN_ANOMALY":288.2377,"EPHEMERIS_TYPE":0,"CLASSIFICATION_TYPE":"U","NORAD_CAT_ID":37836,"ELEMENT_SET_NO":999,"REV_AT_EPOCH":639,"BSTAR":0,"MEAN_MOTION_DOT":1.03e-6,"MEAN_MOTION_DDOT":0},{"OBJECT_NAME":"EUTELSAT 21B","OBJECT_ID":"2012-062B","EPOCH":"2026-03-15T05:09:01.827072","MEAN_MOTION":1.00270035,"ECCENTRICITY":0.00029235,"INCLINATION":0.0687,"RA_OF_ASC_NODE":353.196,"ARG_OF_PERICENTER":354.7573,"MEAN_ANOMALY":283.7037,"EPHEMERIS_TYPE":0,"CLASSIFICATION_TYPE":"U","NORAD_CAT_ID":38992,"ELEMENT_SET_NO":999,"REV_AT_EPOCH":4888,"BSTAR":0,"MEAN_MOTION_DOT":1.29e-6,"MEAN_MOTION_DDOT":0},{"OBJECT_NAME":"EUTELSAT 70B","OBJECT_ID":"2012-069A","EPOCH":"2026-03-15T05:13:38.521344","MEAN_MOTION":1.00271748,"ECCENTRICITY":0.00019535,"INCLINATION":0.0644,"RA_OF_ASC_NODE":2.7145,"ARG_OF_PERICENTER":338.0688,"MEAN_ANOMALY":340.92,"EPHEMERIS_TYPE":0,"CLASSIFICATION_TYPE":"U","NORAD_CAT_ID":39020,"ELEMENT_SET_NO":999,"REV_AT_EPOCH":4856,"BSTAR":0,"MEAN_MOTION_DOT":-4.4e-7,"MEAN_MOTION_DDOT":0},{"OBJECT_NAME":"EUTELSAT 117 WEST A","OBJECT_ID":"2013-012A","EPOCH":"2026-03-15T06:12:10.770336","MEAN_MOTION":1.00272726,"ECCENTRICITY":0.00028904,"INCLINATION":0.0327,"RA_OF_ASC_NODE":292.391,"ARG_OF_PERICENTER":71.5336,"MEAN_ANOMALY":145.1711,"EPHEMERIS_TYPE":0,"CLASSIFICATION_TYPE":"U","NORAD_CAT_ID":39122,"ELEMENT_SET_NO":999,"REV_AT_EPOCH":4749,"BSTAR":0,"MEAN_MOTION_DOT":-1.4e-7,"MEAN_MOTION_DDOT":0},{"OBJECT_NAME":"EUTELSAT 7B","OBJECT_ID":"2013-022A","EPOCH":"2026-03-15T05:04:47.233920","MEAN_MOTION":1.00271407,"ECCENTRICITY":0.00062622,"INCLINATION":0.0667,"RA_OF_ASC_NODE":352.9787,"ARG_OF_PERICENTER":6.7879,"MEAN_ANOMALY":256.2307,"EPHEMERIS_TYPE":0,"CLASSIFICATION_TYPE":"U","NORAD_CAT_ID":39163,"ELEMENT_SET_NO":999,"REV_AT_EPOCH":4700,"BSTAR":0,"MEAN_MOTION_DOT":4.7e-7,"MEAN_MOTION_DDOT":0},{"OBJECT_NAME":"EXPRESS-AT1","OBJECT_ID":"2014-010A","EPOCH":"2026-03-15T05:18:45.893664","MEAN_MOTION":1.00275667,"ECCENTRICITY":3.811e-5,"INCLINATION":0.0205,"RA_OF_ASC_NODE":131.7828,"ARG_OF_PERICENTER":306.89,"MEAN_ANOMALY":229.8931,"EPHEMERIS_TYPE":0,"CLASSIFICATION_TYPE":"U","NORAD_CAT_ID":39612,"ELEMENT_SET_NO":999,"REV_AT_EPOCH":4387,"BSTAR":0,"MEAN_MOTION_DOT":7.7e-7,"MEAN_MOTION_DDOT":0},{"OBJECT_NAME":"EXPRESS-AT2","OBJECT_ID":"2014-010B","EPOCH":"2026-03-11T12:17:49.138656","MEAN_MOTION":1.0027155,"ECCENTRICITY":0.00013084,"INCLINATION":0.0166,"RA_OF_ASC_NODE":193.7113,"ARG_OF_PERICENTER":80.7943,"MEAN_ANOMALY":218.9521,"EPHEMERIS_TYPE":0,"CLASSIFICATION_TYPE":"U","NORAD_CAT_ID":39613,"ELEMENT_SET_NO":999,"REV_AT_EPOCH":4352,"BSTAR":0,"MEAN_MOTION_DOT":-2.8e-6,"MEAN_MOTION_DDOT":0},{"OBJECT_NAME":"EUTELSAT 3B","OBJECT_ID":"2014-030A","EPOCH":"2026-03-15T06:46:22.492128","MEAN_MOTION":1.00272617,"ECCENTRICITY":2.774e-5,"INCLINATION":0.0631,"RA_OF_ASC_NODE":357.5269,"ARG_OF_PERICENTER":306.1688,"MEAN_ANOMALY":333.8655,"EPHEMERIS_TYPE":0,"CLASSIFICATION_TYPE":"U","NORAD_CAT_ID":39773,"ELEMENT_SET_NO":999,"REV_AT_EPOCH":4312,"BSTAR":0,"MEAN_MOTION_DOT":1.9e-7,"MEAN_MOTION_DDOT":0},{"OBJECT_NAME":"EUTELSAT 115 WEST B","OBJECT_ID":"2015-010B","EPOCH":"2026-03-14T08:29:38.713920","MEAN_MOTION":1.00272175,"ECCENTRICITY":2.026e-5,"INCLINATION":0.0416,"RA_OF_ASC_NODE":6.8715,"ARG_OF_PERICENTER":283.9584,"MEAN_ANOMALY":253.6446,"EPHEMERIS_TYPE":0,"CLASSIFICATION_TYPE":"U","NORAD_CAT_ID":40425,"ELEMENT_SET_NO":999,"REV_AT_EPOCH":4044,"BSTAR":0,"MEAN_MOTION_DOT":-2.6e-7,"MEAN_MOTION_DDOT":0},{"OBJECT_NAME":"EUTELSAT 8 WEST B","OBJECT_ID":"2015-039B","EPOCH":"2026-03-15T05:00:32.640768","MEAN_MOTION":1.0027169,"ECCENTRICITY":0.000382,"INCLINATION":0.0672,"RA_OF_ASC_NODE":354.0523,"ARG_OF_PERICENTER":359.8607,"MEAN_ANOMALY":246.0224,"EPHEMERIS_TYPE":0,"CLASSIFICATION_TYPE":"U","NORAD_CAT_ID":40875,"ELEMENT_SET_NO":999,"REV_AT_EPOCH":3871,"BSTAR":0,"MEAN_MOTION_DOT":-6.7e-7,"MEAN_MOTION_DDOT":0}]
