EUTELSAT 139 WEST A     
1 28187U 04008A   26074.20723778 -.00000023  00000+0  00000+0 0  9997
2 28187   5.5886  73.1265 0002331  27.1319 131.5794  1.00831357 80417
EUTELSAT 174A           
1 28924U 05052A   26074.21989152  .00000010  00000+0  00000+0 0  9992
2 28924   3.9791  77.6839 0006268 278.8747  69.4281  1.00270360 51387
EUTELSAT 33F            
1 29270U 06032A   26074.24836439  .00000156  00000+0  00000+0 0  9999
2 29270   1.4173  83.3285 0003467 277.8309 294.2000  1.00274639 46361
EUTELSAT HOTBIRD 13C    
1 33459U 08065A   26074.28754256 -.00000282  00000+0  00000+0 0  9992
2 33459   2.7075  80.3060 0003863 287.3129 218.4855  1.00270387 46401
EUTELSAT 36B            
1 36101U 09065A   26074.22032450  .00000112  00000+0  00000+0 0  9990
2 36101   0.2527  78.1930 0005789 278.9687 305.4663  1.00270439 59763
EUTELSAT KA-SAT 9A      
1 37258U 10069A   26074.14076417  .00000061  00000+0  00000+0 0  9995
2 37258   0.0568 357.1903 0002686 149.3164  85.8940  1.00271329 43066
EUTELSAT 7 WEST A       
1 37816U 11051A   26074.20888446 -.00000061  00000+0  00000+0 0  9998
2 37816   0.0636 347.3738 0000854 195.1829  58.1327  1.00271292 52938
EUTELSAT 16A            
1 37836U 11057A   26074.27961642  .00000103  00000+0  00000+0 0  9999
2 37836   0.0552   2.0930 0005563 359.1958 288.2377  1.00270311  6394
EUTELSAT 21B            
1 38992U 12062B   26074.21460448  .00000129  00000+0  00000+0 0  9990
2 38992   0.0687 353.1960 0002923 354.7573 283.7037  1.00270035 48887
EUTELSAT 70B            
1 39020U 12069A   26074.21780696 -.00000044  00000+0  00000+0 0  9997
2 39020   0.0644   2.7145 0001953 338.0688 340.9200  1.00271748 48564
EUTELSAT 117 WEST A     
1 39122U 13012A   26074.25845799 -.00000014  00000+0  00000+0 0  9996
2 39122   0.0327 292.3910 0002890  71.5336 145.1711  1.00272726 47492
EUTELSAT 7B             
1 39163U 13022A   26074.21165780  .00000047  00000+0  00000+0 0  9998
2 39163   0.0667 352.9787 0006262   6.7879 256.2307  1.00271407 47005
EXPRESS-AT1             
1 39612U 14010A   26074.22136451  .00000077  00000+0  00000+0 0  9992
2 39612   0.0205 131.7828 0000381 306.8900 229.8931  1.00275667 43878
EXPRESS-AT2             
1 39613U 14010B   26070.51237429 -.00000280  00000+0  00000+0 0  9995
2 39613   0.0166 193.7113 0001308  80.7943 218.9521  1.00271550 43528
EUTELSAT 3B             
1 39773U 14030A   26074.28220477  .00000019  00000+0  00000+0 0  9996
2 39773   0.0631 357.5269 0000277 306.1688 333.8655  1.00272617 43125
EUTELSAT 115 WEST B     
1 40425U 15010B   26073.35392030 -.00000026  00000+0  00000+0 0  9992
2 40425   0.0416   6.8715 0000202 283.9584 253.6446  1.00272175 40445
EUTELSAT 8 WEST B       
1 40875U 15039B   26074.20871112 -.00000067  00000+0  00000+0 0  9995
2 40875   0.0672 354.0523 0003820 359.8607 246.0224  1.00271690 38719
